GPS BIIR-2  (PRN 13)    
1 24876U 97035A   26034.58226234 -.00000006  00000+0  00000+0 0  9993
2 24876  55.9198 103.8001 0097336  56.5508 304.4399  2.00563913209277
GPS BIIR-5  (PRN 22)    
1 26407U 00040A   26034.91352441  .00000033  00000+0  00000+0 0  9991
2 26407  54.8812 220.4536 0123550 302.4333 230.3244  2.00568607187272
GPS BIIR-8  (PRN 16)    
1 27663U 03005A   26035.49838961  .00000035  00000+0  00000+0 0  9992
2 27663  54.9130 220.2387 0148704  52.4746 318.6827  2.00567867168656
GPS BIIR-11 (PRN 19)    
1 28190U 04009A   26034.51665766 -.00000024  00000+0  00000+0 0  9995
2 28190  54.9388 281.0882 0109758 168.4436  10.6688  2.00558963160262
GPS BIIR-13 (PRN 02)    
1 28474U 04045A   26035.45680298 -.00000100  00000+0  00000+0 0  9996
2 28474  55.2112 330.2448 0171122 311.6531 248.3416  2.00572024155765
GPS BIIRM-1 (PRN 17)    
1 28874U 05038A   26034.74877994 -.00000021  00000+0  00000+0 0  9997
2 28874  54.9854 278.5629 0129745 294.8359  74.0778  2.00574915149160
INMARSAT 4-F2 (SOUTHPA*)
1 28899U 05044A   26035.46080729 -.00000266  00000+0  00000+0 0  9994
2 28899   4.9196  43.8005 0002389 285.7971 114.3946  1.00271931 74191
GPS BIIRM-2 (PRN 31)    
1 29486U 06042A   26035.36790963  .00000013  00000+0  00000+0 0  9992
2 29486  54.6979 156.6131 0106682  52.8850 301.8170  2.00552156141726
GPS BIIRM-3 (PRN 12)    
1 29601U 06052A   26035.29167566  .00000035  00000+0  00000+0 0  9995
2 29601  54.9619 219.2718 0088247  88.8447 272.1588  2.00549742140744
GPS BIIRM-4 (PRN 15)    
1 32260U 07047A   26035.10141880 -.00000022  00000+0  00000+0 0  9993
2 32260  53.9932  85.5526 0163574  85.7514 276.1895  2.00562140134144
COSMOS 2433 (720)       
1 32275U 07052A   26035.11564513 -.00000068  00000+0  00000+0 0  9998
2 32275  65.6521 320.4131 0003373 267.0124  92.9783  2.13103850142220
COSMOS 2432 (719)       
1 32276U 07052B   26035.44713885 -.00000069  00000+0  00000+0 0  9994
2 32276  65.6677 320.5271 0011038 324.2930 234.3192  2.13103105142259
GPS BIIRM-5 (PRN 29)    
1 32384U 07062A   26035.16283911 -.00000026  00000+0  00000+0 0  9999
2 32384  55.1365 279.5000 0032141 160.8888  12.5238  2.00551721132842
COSMOS 2434 (721)       
1 32393U 07065A   26034.40222744  .00000035  00000+0  00000+0 0  9994
2 32393  64.3184 196.4252 0004518  71.8916 351.2125  2.13101058140923
COSMOS 2436 (723)       
1 32395U 07065C   26032.97007691  .00000034  00000+0  00000+0 0  9997
2 32395  64.3268 196.5441 0017760   9.8821 167.3904  2.13099964140842
GPS BIIRM-6 (PRN 07)    
1 32711U 08012A   26034.52206195  .00000005  00000+0  00000+0 0  9993
2 32711  54.4817 155.2657 0205237 245.6904 112.1273  2.00567934131070
GPS BIIRM-8 (PRN 05)    
1 35752U 09043A   26035.06351659 -.00000075  00000+0  00000+0 0  9990
2 35752  56.1289  32.6817 0051323  80.9345 326.8837  2.00562235120695
COSMOS 2456 (730)       
1 36111U 09070A   26034.34549005  .00000001  00000+0  00000+0 0  9992
2 36111  64.9301  75.5388 0005465 300.7741 236.1838  2.13103368125573
COSMOS 2457 (733)       
1 36112U 09070B   26035.39553499 -.00000008  00000+0  00000+0 0  9999
2 36112  64.9163  75.3493 0002916 183.9072 207.2532  2.13100840125607
COSMOS 2460 (732)       
1 36402U 10007C   26033.74290300 -.00000064  00000+0  00000+0 0  9991
2 36402  65.4985 319.0174 0001796 329.7924 233.8321  2.13105991123861
GPS BIIF-1  (PRN 25)    
1 36585U 10022A   26035.33644547  .00000034  00000+0  00000+0 0  9999
2 36585  54.2934 213.9117 0127387  65.6609 296.2424  2.00555900114933
BEIDOU-2 IGSO-1 (C06)   
1 36828U 10036A   26035.29319860 -.00000133  00000+0  00000+0 0  9997
2 36828  54.2939 164.1635 0052929 217.3717 325.3009  1.00260267 56762
BEIDOU-2 G4 (C04)       
1 37210U 10057A   26035.49411194 -.00000120  00000+0  00000+0 0  9997
2 37210   3.3176  69.7137 0010015 205.5536 197.1514  1.00269465 55967
BEIDOU-2 IGSO-2 (C07)   
1 37256U 10068A   26034.58055284 -.00000176  00000+0  00000+0 0  9993
2 37256  47.7841 273.4891 0047307 213.9834 323.4645  1.00268293 55458
BEIDOU-2 IGSO-3 (C08)   
1 37384U 11013A   26031.71987549 -.00000147  00000+0  00000+0 0  9994
2 37384  62.2151  41.4373 0032945 190.1608 263.8989  1.00257905 54298
GSAT-8 (GAGAN/PRN 127)  
1 37605U 11022A   26035.21294784  .00000078  00000+0  00000+0 0  9993
2 37605   1.7879  83.5554 0008252 203.6165 338.9082  1.00271386 51888
BEIDOU-2 IGSO-4 (C09)   
1 37763U 11038A   26033.12497394 -.00000091  00000+0  00000+0 0  9991
2 37763  54.5902 166.8890 0152471 230.5776 234.8329  1.00271568 53291
GSAT0101 (GALILEO-PFM)  
1 37846U 11060A   26034.10695103 -.00000105  00000+0  00000+0 0  9991
2 37846  57.0384 345.4003 0003821 343.9841  15.9899  1.70475611 88832
GSAT0102 (GALILEO-FM2)  
1 37847U 11060B   26034.32884994 -.00000105  00000+0  00000+0 0  9994
2 37847  57.0391 345.3946 0005484 329.9458 211.7209  1.70475833 88849
COSMOS 2476 (744)       
1 37867U 11064A   26034.29931236  .00000003  00000+0  00000+0 0  9994
2 37867  65.1910  77.3927 0025096 239.1500 170.7281  2.13103538110916
COSMOS 2477 (745)       
1 37868U 11064B   26034.48475288  .00000002  00000+0  00000+0 0  9995
2 37868  65.1975  77.4646 0022134 240.1686 132.7279  2.13102685110911
COSMOS 2475 (743)       
1 37869U 11064C   26034.52883502  .00000002  00000+0  00000+0 0  9993
2 37869  65.2043  77.4836 0027848 252.4888 109.9218  2.13101440110925
BEIDOU-2 IGSO-5 (C10)   
1 37948U 11073A   26028.66774690 -.00000113  00000+0  00000+0 0  9990
2 37948  47.9306 273.2746 0108706 221.5041 328.4434  1.00280002 51737
LUCH 5A (SDCM/PRN 140)  
1 37951U 11074B   26035.37821641 -.00000057  00000+0  00000+0 0  9997
2 37951   8.4159  75.7777 0004657 222.9297 138.8485  1.00272660 51725
BEIDOU-2 G5 (C05)       
1 38091U 12008A   26035.54466225  .00000051  00000+0  00000+0 0  9996
2 38091   3.2431  70.4797 0014299 242.4422  76.5375  1.00273211 51034
BEIDOU-2 M3 (C11)       
1 38250U 12018A   26035.02316797 -.00000079  00000+0  00000+0 0  9996
2 38250  55.8724 309.3651 0022519 278.5499  81.2395  1.86229702 93468
BEIDOU-2 M4 (C12)       
1 38251U 12018B   26034.95528678 -.00000078  00000+0  00000+0 0  9990
2 38251  55.7731 308.5922 0013736 284.6226  75.2706  1.86229435 93467
SES-5 (EGNOS/PRN 136)   
1 38652U 12036A   26035.34441887  .00000027  00000+0  00000+0 0  9998
2 38652   0.0577 294.3350 0002038  17.0019 312.1132  1.00271261 43125
BEIDOU-2 M6 (C14)       
1 38775U 12050B   26034.12881174 -.00000029  00000+0  00000+0 0  9995
2 38775  56.4248  67.3278 0013048 340.5354  19.4829  1.86230870 90810
GSAT-10 (GAGAN/PRN 128) 
1 38779U 12051B   26035.51633356  .00000000  00000+0  00000+0 0  9999
2 38779   0.0155 257.0135 0002932 182.0910 324.3918  1.00271827 48760
GPS BIIF-3  (PRN 24)    
1 38833U 12053A   26035.19833436  .00000007  00000+0  00000+0 0  9994
2 38833  53.5640 149.0493 0176647  64.5822 297.2173  2.00565464 96770
GSAT0103 (GALILEO-FM3)  
1 38857U 12055A   26035.32054867 -.00000017  00000+0  00000+0 0  9992
2 38857  55.7215 105.1931 0004518 279.6557  80.3588  1.70473351 82741
BEIDOU-2 G6 (C02)       
1 38953U 12059A   26035.07488411 -.00000183  00000+0  00000+0 0  9995
2 38953   4.0846  74.9658 0009396 295.9396 234.2347  1.00274342 48573
LUCH 5B (SDCM/PRN 125)  
1 38977U 12061A   26035.34025884 -.00000144  00000+0  00000+0 0  9992
2 38977  10.1975  51.1852 0005528 215.7940 333.6649  1.00270412 48271
COSMOS 2485 (747)       
1 39155U 13019A   26035.57906946 -.00000006  00000+0  00000+0 0  9994
2 39155  65.3427  78.0560 0025545 234.9388 124.8945  2.13102930 99457
GPS BIIF-4  (PRN 27)    
1 39166U 13023A   26035.06295355 -.00000018  00000+0  00000+0 0  9993
2 39166  54.6073 274.3967 0140732  49.4303 311.8553  2.00564371 93219
IRNSS-1A                
1 39199U 13034A   26030.99497895  .00000058  00000+0  00000+0 0  9994
2 39199  35.4148  65.8367 0019113 191.6123 285.9948  1.00273813 45998
GPS BIIF-5  (PRN 30)    
1 39533U 14008A   26034.56121110  .00000004  00000+0  00000+0 0  9990
2 39533  53.6366 154.7714 0081210 227.2623 132.0246  2.00551266 87009
ASTRA 5B (EGNOS/PRN 123)
1 39617U 14011B   26035.34797221  .00000131  00000+0  00000+0 0  9997
2 39617   0.0696 302.1829 0004734   6.7191 334.3316  1.00270460 43332
COSMOS 2492 (754)       
1 39620U 14012A   26035.06852255 -.00000066  00000+0  00000+0 0  9998
2 39620  65.3753 318.4618 0013873 321.1872  38.7455  2.13103026 92403
IRNSS-1B                
1 39635U 14017A   26035.14057778  .00000125  00000+0  00000+0 0  9990
2 39635  29.1566 242.6761 0020317 176.9564 180.3716  1.00269854 43453
LUCH 5V (SDCM/PRN 141)  
1 39727U 14023A   26035.58188057 -.00000274  00000+0  00000+0 0  9998
2 39727   4.8054  71.0540 0003430 248.2757 119.5622  1.00273901 43032
GPS BIIF-6  (PRN 06)    
1 39741U 14026A   26034.34278873 -.00000101  00000+0  00000+0 0  9995
2 39741  56.5607 336.7307 0040037 322.6963  37.0297  2.00570715 85850
COSMOS 2500 (755)       
1 40001U 14032A   26034.30149803 -.00000064  00000+0  00000+0 0  9997
2 40001  65.3114 318.2458 0005962 213.3684 146.6248  2.13105907 90601
GPS BIIF-7  (PRN 09)    
1 40105U 14045A   26034.92667847 -.00000013  00000+0  00000+0 0  9991
2 40105  55.2614  93.7750 0031227 120.4752 239.9042  2.00575906 83400
GSAT0201 (GALILEO 5)    
1 40128U 14050A   26034.74850165 -.00000040  00000+0  00000+0 0  9999
2 40128  49.0171 278.8976 1653745 174.2595 187.9403  1.85519844 75841
GSAT0202 (GALILEO 6)    
1 40129U 14050B   26033.38759054 -.00000025  00000+0  00000+0 0  9997
2 40129  49.0344 278.0374 1654392 174.9443 187.0043  1.85520603 77989
IRNSS-1C                
1 40269U 14061A   26035.07471077 -.00000170  00000+0  00000+0 0  9999
2 40269   6.1766  91.5543 0018933 356.9276 155.5934  1.00274305 41355
GPS BIIF-8  (PRN 03)    
1 40294U 14068A   26034.80695949 -.00000068  00000+0  00000+0 0  9996
2 40294  56.8983  36.0945 0061685  68.1870 292.4892  2.00568061 82535
COSMOS 2501 (702K)      
1 40315U 14075A   26035.03097596  .00000037  00000+0  00000+0 0  9993
2 40315  63.6173 194.9785 0020397 204.5459 155.3245  2.13101323 87011
